{
  "type": "FeatureCollection",
  "features": [
    {
      "type": "Feature",
      "properties": {
        "WorkEventType": "Utility",
        "Contractor": "Pave Krete Construction",
        "PermitType": "Utility",
        "Description": "Toronto-TMC: - Permanent restoration of the asphalt road on Fort York Blvd from Spadina Ave to Dan Leckie Way. - One side of the road in both directions (eastbound and westbound) will remain open at all times. Note: This Project DOES NOT contain phasing.",
        "Type": "CONSTRUCTION",
        "maxImpact": "High",
        "StartTime": "10/5/2026, 11:00:00 AM",
        "EndTime": "10/23/2026, 7:00:00 PM"
      },
      "geometry": {
        "type": "Point",
        "coordinates": [
          -79.39299,
          43.64053
        ]
      }
    },
    {
      "type": "Feature",
      "properties": {
        "WorkEventType": "Utility",
        "Contractor": "Pave Krete Construction",
        "PermitType": "Utility",
        "Description": "Toronto-TMC: - Permanent restoration of the asphalt road on Fort York Blvd from Spadina Ave to Dan Leckie Way. - One side of the road in both directions (eastbound and westbound) will remain open at all times. Note: This Project DOES NOT contain phasing.",
        "Type": "CONSTRUCTION",
        "maxImpact": "High",
        "StartTime": "10/5/2026, 11:00:00 AM",
        "EndTime": "10/23/2026, 7:00:00 PM"
      },
      "geometry": {
        "type": "Point",
        "coordinates": [
          -79.39299,
          43.64053
        ]
      }
    },
    {
      "type": "Feature",
      "properties": {
        "WorkEventType": "Toronto Water",
        "Contractor": "IPAC Paving Limited",
        "PermitType": "Toronto Water",
        "Description": "Toronto-TMC: Asphalt patches, line markings",
        "Type": "CONSTRUCTION",
        "maxImpact": "Low",
        "StartTime": "10/7/2026, 11:00:00 AM",
        "EndTime": "10/16/2026, 11:00:00 PM"
      },
      "geometry": {
        "type": "Point",
        "coordinates": [
          -79.38518,
          43.64614
        ]
      }
    },
    {
      "type": "Feature",
      "properties": {
        "WorkEventType": "Toronto Water",
        "Contractor": "IPAC Paving Limited",
        "PermitType": "Toronto Water",
        "Description": "Toronto-TMC: Asphalt patches, line markings",
        "Type": "CONSTRUCTION",
        "maxImpact": "Low",
        "StartTime": "10/7/2026, 11:00:00 AM",
        "EndTime": "10/16/2026, 11:00:00 PM"
      },
      "geometry": {
        "type": "Point",
        "coordinates": [
          -79.38538,
          43.64569
        ]
      }
    },
    {
      "type": "Feature",
      "properties": {
        "WorkEventType": "Toronto Water",
        "Contractor": "IPAC Paving Limited",
        "PermitType": "Toronto Water",
        "Description": "Toronto-TMC: Asphalt patches, line markings",
        "Type": "CONSTRUCTION",
        "maxImpact": "Low",
        "StartTime": "10/7/2026, 11:00:00 AM",
        "EndTime": "10/16/2026, 11:00:00 PM"
      },
      "geometry": {
        "type": "Point",
        "coordinates": [
          -79.38734,
          43.64568
        ]
      }
    },
    {
      "type": "Feature",
      "properties": {
        "WorkEventType": "Toronto Water",
        "Contractor": "IPAC Paving Limited",
        "PermitType": "Toronto Water",
        "Description": "Toronto-TMC: Asphalt patches, line markings",
        "Type": "CONSTRUCTION",
        "maxImpact": "Low",
        "StartTime": "10/7/2026, 11:00:00 AM",
        "EndTime": "10/16/2026, 11:00:00 PM"
      },
      "geometry": {
        "type": "Point",
        "coordinates": [
          -79.3829,
          43.6452
        ]
      }
    },
    {
      "type": "Feature",
      "properties": {
        "WorkEventType": "Transportation Services",
        "Contractor": "Stratton Prime Drilling Inc",
        "PermitType": "Transportation Services",
        "Description": "Toronto-TMC: Engineering & Construction Services, Soil & Groundwater Quality Unit - Geotechnical, Geoenvironmental, Pavement and Hydrogeological Investigations",
        "Type": "CONSTRUCTION",
        "maxImpact": "Low",
        "StartTime": "10/12/2026, 1:00:00 PM",
        "EndTime": "11/6/2026, 9:00:00 PM"
      },
      "geometry": {
        "type": "Point",
        "coordinates": [
          -79.389,
          43.64847
        ]
      }
    },
    {
      "type": "Feature",
      "properties": {
        "WorkEventType": "Transportation Services",
        "Contractor": "Midome Construction Services Ltd.",
        "PermitType": "Transportation Services",
        "Description": "Toronto-TMC: City of Toronto Mercer Street Streetscape Improvement From Blue Jays Way to John Street",
        "Type": "ROAD_CLOSED",
        "maxImpact": "Low",
        "StartTime": "10/13/2026, 11:00:00 AM",
        "EndTime": "12/25/2026, 10:00:00 PM"
      },
      "geometry": {
        "type": "Point",
        "coordinates": [
          -79.38946,
          43.64594
        ]
      }
    },
    {
      "type": "Feature",
      "properties": {
        "WorkEventType": "Toronto Hydro",
        "Contractor": "Powerlineplus",
        "PermitType": "Toronto Hydro",
        "Description": "Toronto-TMC: Cable pulling",
        "Type": "CONSTRUCTION",
        "maxImpact": "Low",
        "StartTime": "10/9/2026, 11:00:00 AM",
        "EndTime": "10/12/2026, 8:00:00 PM"
      },
      "geometry": {
        "type": "Point",
        "coordinates": [
          -79.38761,
          43.64087
        ]
      }
    },
    {
      "type": "Feature",
      "properties": {
        "WorkEventType": "Toronto Water",
        "Contractor": "Insituform Technologies Ltd.",
        "PermitType": "Toronto Water",
        "Description": "Toronto-TMC: CIPP construction works on existing sanitary/storm Sewer",
        "Type": "ROAD_CLOSED",
        "maxImpact": "Low",
        "StartTime": "10/12/2026, 11:00:00 AM",
        "EndTime": "10/16/2026, 11:00:00 PM"
      },
      "geometry": {
        "type": "Point",
        "coordinates": [
          -79.39369,
          43.64666
        ]
      }
    },
    {
      "type": "Feature",
      "properties": {
        "WorkEventType": "Toronto Water",
        "Contractor": "Insituform Technologies Ltd.",
        "PermitType": "Toronto Water",
        "Description": "Toronto-TMC: CIPP construction works on existing sanitary/storm Sewer",
        "Type": "ROAD_CLOSED",
        "maxImpact": "Low",
        "StartTime": "10/12/2026, 11:00:00 AM",
        "EndTime": "10/16/2026, 11:00:00 PM"
      },
      "geometry": {
        "type": "Point",
        "coordinates": [
          -79.39348,
          43.6467
        ]
      }
    },
    {
      "type": "Feature",
      "properties": {
        "WorkEventType": "Waterfront Toronto",
        "Contractor": "IPAC Paving Limited",
        "PermitType": "Waterfront Toronto",
        "Description": "Toronto-TMC: Asphalt patches and line painting",
        "Type": "CONSTRUCTION",
        "maxImpact": "Low",
        "StartTime": "11/20/2026, 2:00:00 PM",
        "EndTime": "11/30/2026, 9:00:00 PM"
      },
      "geometry": {
        "type": "Point",
        "coordinates": [
          -79.38708,
          43.64004
        ]
      }
    },
    {
      "type": "Feature",
      "properties": {
        "WorkEventType": "Other",
        "Contractor": "Meridian Construction Inc.",
        "PermitType": "Other",
        "Description": "Toronto-TMC: It is a landscape project.",
        "Type": "CONSTRUCTION",
        "maxImpact": "High",
        "StartTime": "9/28/2026, 1:00:00 PM",
        "EndTime": "10/30/2026, 8:00:00 PM"
      },
      "geometry": {
        "type": "Point",
        "coordinates": [
          -79.39988,
          43.64722
        ]
      }
    },
    {
      "type": "Feature",
      "properties": {
        "WorkEventType": "Other",
        "Contractor": "Meridian Construction Inc.",
        "PermitType": "Other",
        "Description": "Toronto-TMC: It is a landscape project.",
        "Type": "CONSTRUCTION",
        "maxImpact": "Low",
        "StartTime": "9/28/2026, 1:00:00 PM",
        "EndTime": "10/30/2026, 8:00:00 PM"
      },
      "geometry": {
        "type": "Point",
        "coordinates": [
          -79.39997,
          43.64681
        ]
      }
    },
    {
      "type": "Feature",
      "properties": {
        "WorkEventType": "Long term construction staging",
        "Contractor": "Kingdom Toronto Peter Project Limited Partnership",
        "PermitType": "Long term construction staging",
        "Description": "Toronto-TMC: The project at 128 Peter Street is a proposed residential development located at the southwest corner of Peter Street and Richmond Street West in Toronto. The development consists of approximately 370 residential units within a high-rise building. Construction will require occupation of portions of the public right-of-way on both Peter Street and Richmond Street West, including lane reductions and sidewalk management to accommodate staging, excavation, and building construction activities. Pedestrian and cycling connections will be maintained during construction.",
        "Type": "CONSTRUCTION",
        "maxImpact": "High",
        "StartTime": "9/21/2026, 4:00:00 AM",
        "EndTime": "1/1/2030, 4:59:00 AM"
      },
      "geometry": {
        "type": "Point",
        "coordinates": [
          -79.39334,
          43.64838
        ]
      }
    },
    {
      "type": "Feature",
      "properties": {
        "WorkEventType": "Long term construction staging",
        "Contractor": "Kingdom Toronto Peter Project Limited Partnership",
        "PermitType": "Long term construction staging",
        "Description": "Toronto-TMC: The project at 128 Peter Street is a proposed residential development located at the southwest corner of Peter Street and Richmond Street West in Toronto. The development consists of approximately 370 residential units within a high-rise building. Construction will require occupation of portions of the public right-of-way on both Peter Street and Richmond Street West, including lane reductions and sidewalk management to accommodate staging, excavation, and building construction activities. Pedestrian and cycling connections will be maintained during construction.",
        "Type": "CONSTRUCTION",
        "maxImpact": "Low",
        "StartTime": "9/21/2026, 4:00:00 AM",
        "EndTime": "1/1/2030, 4:59:00 AM"
      },
      "geometry": {
        "type": "Point",
        "coordinates": [
          -79.39312,
          43.64804
        ]
      }
    },
    {
      "type": "Feature",
      "properties": {
        "WorkEventType": "Other",
        "Contractor": "Aecon Utilities",
        "PermitType": "Other",
        "Description": "Toronto-TMC: We will be working at asphalt on the road and our service vehicles will be parked close to our worksite. Cyclist will be temporary merged with the road and traffic sign will be placed ahead to manage on coming traffic control.",
        "Type": "CONSTRUCTION",
        "maxImpact": "High",
        "StartTime": "10/19/2026, 1:00:00 PM",
        "EndTime": "10/23/2026, 8:00:00 PM"
      },
      "geometry": {
        "type": "Point",
        "coordinates": [
          -79.39482,
          43.64495
        ]
      }
    },
    {
      "type": "Feature",
      "properties": {
        "WorkEventType": "Toronto Hydro",
        "Contractor": "Entera Utility Contractors",
        "PermitType": "Toronto Hydro",
        "Description": "Toronto-TMC: - The project is Underground Civil Infrastructure project. The project includes rebuilding an old vault. - The project will be executed by Entera Utility Contractors under the contract with Toronto Hydro. Cut permit have been received from City of Toronto. - Metrolinx no conflict letter has been received. - Location is 379 Adelaide St West. Construction notices has been delivered. Residents and offices around are aware of our existence on the site.",
        "Type": "CONSTRUCTION",
        "maxImpact": "High",
        "StartTime": "8/4/2026, 11:00:00 AM",
        "EndTime": "10/30/2026, 8:30:00 PM"
      },
      "geometry": {
        "type": "Point",
        "coordinates": [
          -79.39618,
          43.64662
        ]
      }
    },
    {
      "type": "Feature",
      "properties": {
        "WorkEventType": "Long term construction staging",
        "Contractor": "Plazacorp Investments Limited",
        "PermitType": "Long term construction staging",
        "Description": "Toronto-TMC: Construction staging to complete mixed use tower under construction",
        "Type": "CONSTRUCTION",
        "maxImpact": "Low",
        "StartTime": "4/1/2025, 4:00:00 AM",
        "EndTime": "1/1/2027, 4:59:00 AM"
      },
      "geometry": {
        "type": "Point",
        "coordinates": [
          -79.3936,
          43.64578
        ]
      }
    },
    {
      "type": "Feature",
      "properties": {
        "WorkEventType": "Long term construction staging",
        "Contractor": "Plazacorp Investments Limited",
        "PermitType": "Long term construction staging",
        "Description": "Toronto-TMC: Construction staging to complete mixed use tower under construction",
        "Type": "CONSTRUCTION",
        "maxImpact": "High",
        "StartTime": "4/1/2025, 4:00:00 AM",
        "EndTime": "1/1/2027, 4:59:00 AM"
      },
      "geometry": {
        "type": "Point",
        "coordinates": [
          -79.39277,
          43.64594
        ]
      }
    },
    {
      "type": "Feature",
      "properties": {
        "WorkEventType": "Other",
        "Contractor": "Ontario Transit Group",
        "PermitType": "Other",
        "Description": "Toronto-TMC: King-Bathurst Station site staging. Closure adjacent to South Shaft work area along Stewart St. Extended permit not yet issued, but has been applied for.",
        "Type": "CONSTRUCTION",
        "maxImpact": "Low",
        "StartTime": "1/1/2025, 5:00:00 AM",
        "EndTime": "1/1/2027, 4:59:00 AM"
      },
      "geometry": {
        "type": "Point",
        "coordinates": [
          -79.4024,
          43.64319
        ]
      }
    },
    {
      "type": "Feature",
      "properties": {
        "WorkEventType": "Metrolinx",
        "Contractor": "Ontario Transit Group",
        "PermitType": "Metrolinx",
        "Description": "Toronto-TMC: Full closure of Simcoe St. for bollard removal, curb cutting, and line painting. Pedestrian sidewalk to remain open on eastern side of Simcoe. Northbound bicycle lane open.",
        "Type": "CONSTRUCTION",
        "maxImpact": "Low",
        "StartTime": "4/4/2026, 4:00:00 AM",
        "EndTime": "1/1/2027, 4:59:00 AM"
      },
      "geometry": {
        "type": "Point",
        "coordinates": [
          -79.38727,
          43.65025
        ]
      }
    },
    {
      "type": "Feature",
      "properties": {
        "WorkEventType": "Long term construction staging",
        "Contractor": "Lanterra 263 Adelaide Developments Ltd.",
        "PermitType": "Long term construction staging",
        "Description": "Toronto-TMC: Continuous closure of one eastbound lane at 263 Adelaide Street West, and re-routing of sidewalk.",
        "Type": "CONSTRUCTION",
        "maxImpact": "High",
        "StartTime": "3/25/2026, 4:00:00 AM",
        "EndTime": "1/1/2027, 4:59:00 AM"
      },
      "geometry": {
        "type": "Point",
        "coordinates": [
          -79.38931,
          43.64806
        ]
      }
    }
  ]
}